CCSDS_OMM_VERS = 2.0
CREATION_DATE  = 
ORIGINATOR     = 

OBJECT_NAME    = KUIPER-00268
OBJECT_ID      = 2026-030AC
CENTER_NAME    = EARTH
REF_FRAME      = TEME
TIME_SYSTEM    = UTC
MEAN_ELEMENT_THEORY = SGP/SGP4

EPOCH          = 2026-03-06T19:53:38.010624
MEAN_MOTION    = 15.35887577
ECCENTRICITY   = .0002669
INCLINATION    = 51.8840
RA_OF_ASC_NODE = 232.9037
ARG_OF_PERICENTER = 38.7647
MEAN_ANOMALY   = 321.3530

EPHEMERIS_TYPE = 0
CLASSIFICATION_TYPE = U
NORAD_CAT_ID   = 67790
ELEMENT_SET_NO = 999
REV_AT_EPOCH   = 465
BSTAR          = .11273E-2
MEAN_MOTION_DOT = .39807E-3
MEAN_MOTION_DDOT = 0

CCSDS_OMM_VERS = 2.0
CREATION_DATE  = 
ORIGINATOR     = 

OBJECT_NAME    = KUIPER-00270
OBJECT_ID      = 2026-030AD
CENTER_NAME    = EARTH
REF_FRAME      = TEME
TIME_SYSTEM    = UTC
MEAN_ELEMENT_THEORY = SGP/SGP4

EPOCH          = 2026-03-06T20:22:40.796256
MEAN_MOTION    = 15.34540261
ECCENTRICITY   = .0010412
INCLINATION    = 51.8818
RA_OF_ASC_NODE = 233.0250
ARG_OF_PERICENTER = 47.5919
MEAN_ANOMALY   = 312.5946

EPHEMERIS_TYPE = 0
CLASSIFICATION_TYPE = U
NORAD_CAT_ID   = 67791
ELEMENT_SET_NO = 999
REV_AT_EPOCH   = 465
BSTAR          = .12205E-2
MEAN_MOTION_DOT = .41372E-3
MEAN_MOTION_DDOT = 0

CCSDS_OMM_VERS = 2.0
CREATION_DATE  = 
ORIGINATOR     = 

OBJECT_NAME    = KUIPER-00274
OBJECT_ID      = 2026-030AE
CENTER_NAME    = EARTH
REF_FRAME      = TEME
TIME_SYSTEM    = UTC
MEAN_ELEMENT_THEORY = SGP/SGP4

EPOCH          = 2026-03-06T19:31:08.384736
MEAN_MOTION    = 15.30904324
ECCENTRICITY   = .0017983
INCLINATION    = 51.8822
RA_OF_ASC_NODE = 233.5306
ARG_OF_PERICENTER = 63.6249
MEAN_ANOMALY   = 296.6578

EPHEMERIS_TYPE = 0
CLASSIFICATION_TYPE = U
NORAD_CAT_ID   = 67792
ELEMENT_SET_NO = 999
REV_AT_EPOCH   = 464
BSTAR          = .96014E-3
MEAN_MOTION_DOT = .28974E-3
MEAN_MOTION_DDOT = 0

CCSDS_OMM_VERS = 2.0
CREATION_DATE  = 
ORIGINATOR     = 

OBJECT_NAME    = KUIPER-00275
OBJECT_ID      = 2026-030AF
CENTER_NAME    = EARTH
REF_FRAME      = TEME
TIME_SYSTEM    = UTC
MEAN_ELEMENT_THEORY = SGP/SGP4

EPOCH          = 2026-03-06T18:45:02.311200
MEAN_MOTION    = 15.34602161
ECCENTRICITY   = .0009118
INCLINATION    = 51.8849
RA_OF_ASC_NODE = 233.3294
ARG_OF_PERICENTER = 45.3400
MEAN_ANOMALY   = 314.8328

EPHEMERIS_TYPE = 0
CLASSIFICATION_TYPE = U
NORAD_CAT_ID   = 67793
ELEMENT_SET_NO = 999
REV_AT_EPOCH   = 464
BSTAR          = .82384E-3
MEAN_MOTION_DOT = .27797E-3
MEAN_MOTION_DDOT = 0

CCSDS_OMM_VERS = 2.0
CREATION_DATE  = 
ORIGINATOR     = 

OBJECT_NAME    = KUIPER-00276
OBJECT_ID      = 2026-030AG
CENTER_NAME    = EARTH
REF_FRAME      = TEME
TIME_SYSTEM    = UTC
MEAN_ELEMENT_THEORY = SGP/SGP4

EPOCH          = 2026-03-06T13:20:35.661120
MEAN_MOTION    = 15.30922911
ECCENTRICITY   = .00186466
INCLINATION    = 51.8810
RA_OF_ASC_NODE = 234.8028
ARG_OF_PERICENTER = 58.3109
MEAN_ANOMALY   = 301.9691

EPHEMERIS_TYPE = 0
CLASSIFICATION_TYPE = U
NORAD_CAT_ID   = 67794
ELEMENT_SET_NO = 999
REV_AT_EPOCH   = 460
BSTAR          = -.6191235E-2
MEAN_MOTION_DOT = -.184658E-2
MEAN_MOTION_DDOT = 0

CCSDS_OMM_VERS = 2.0
CREATION_DATE  = 
ORIGINATOR     = 

OBJECT_NAME    = KUIPER-00279
OBJECT_ID      = 2026-030AH
CENTER_NAME    = EARTH
REF_FRAME      = TEME
TIME_SYSTEM    = UTC
MEAN_ELEMENT_THEORY = SGP/SGP4

EPOCH          = 2026-03-06T20:08:08.576160
MEAN_MOTION    = 15.35288509
ECCENTRICITY   = .0006654
INCLINATION    = 51.8802
RA_OF_ASC_NODE = 232.9576
ARG_OF_PERICENTER = 39.6256
MEAN_ANOMALY   = 320.5215

EPHEMERIS_TYPE = 0
CLASSIFICATION_TYPE = U
NORAD_CAT_ID   = 67795
ELEMENT_SET_NO = 999
REV_AT_EPOCH   = 465
BSTAR          = .11048E-2
MEAN_MOTION_DOT = .38271E-3
MEAN_MOTION_DDOT = 0

CCSDS_OMM_VERS = 2.0
CREATION_DATE  = 
ORIGINATOR     = 

OBJECT_NAME    = CREW DRAGON 12
OBJECT_ID      = 2026-031A
CENTER_NAME    = EARTH
REF_FRAME      = TEME
TIME_SYSTEM    = UTC
MEAN_ELEMENT_THEORY = SGP/SGP4

EPOCH          = 2026-03-06T13:04:21.510624
MEAN_MOTION    = 15.48477653
ECCENTRICITY   = .00081171
INCLINATION    = 51.6317
RA_OF_ASC_NODE = 87.9051
ARG_OF_PERICENTER = 163.3368
MEAN_ANOMALY   = 196.7888

EPHEMERIS_TYPE = 0
CLASSIFICATION_TYPE = U
NORAD_CAT_ID   = 67796
ELEMENT_SET_NO = 999
REV_AT_EPOCH   = 55572
BSTAR          = .18044032E-3
MEAN_MOTION_DOT = .9332E-4
MEAN_MOTION_DDOT = 0

CCSDS_OMM_VERS = 2.0
CREATION_DATE  = 
ORIGINATOR     = 

OBJECT_NAME    = STARLINK-36800
OBJECT_ID      = 2026-032A
CENTER_NAME    = EARTH
REF_FRAME      = TEME
TIME_SYSTEM    = UTC
MEAN_ELEMENT_THEORY = SGP/SGP4

EPOCH          = 2026-03-06T13:56:10.459968
MEAN_MOTION    = 15.75224016
ECCENTRICITY   = .00013915
INCLINATION    = 97.2845
RA_OF_ASC_NODE = 251.9096
ARG_OF_PERICENTER = 92.2343
MEAN_ANOMALY   = 267.9082

EPHEMERIS_TYPE = 0
CLASSIFICATION_TYPE = U
NORAD_CAT_ID   = 67797
ELEMENT_SET_NO = 999
REV_AT_EPOCH   = 429
BSTAR          = .68419635E-3
MEAN_MOTION_DOT = .103317E-2
MEAN_MOTION_DDOT = 0

CCSDS_OMM_VERS = 2.0
CREATION_DATE  = 
ORIGINATOR     = 

OBJECT_NAME    = STARLINK-36798
OBJECT_ID      = 2026-032B
CENTER_NAME    = EARTH
REF_FRAME      = TEME
TIME_SYSTEM    = UTC
MEAN_ELEMENT_THEORY = SGP/SGP4

EPOCH          = 2026-03-06T20:00:00.999360
MEAN_MOTION    = 15.75142642
ECCENTRICITY   = .0001274
INCLINATION    = 97.2855
RA_OF_ASC_NODE = 252.2141
ARG_OF_PERICENTER = 88.5316
MEAN_ANOMALY   = 355.4580

EPHEMERIS_TYPE = 0
CLASSIFICATION_TYPE = U
NORAD_CAT_ID   = 67798
ELEMENT_SET_NO = 999
REV_AT_EPOCH   = 426
BSTAR          = .48879E-3
MEAN_MOTION_DOT = .73254E-3
MEAN_MOTION_DDOT = 0

CCSDS_OMM_VERS = 2.0
CREATION_DATE  = 
ORIGINATOR     = 

OBJECT_NAME    = STARLINK-36804
OBJECT_ID      = 2026-032C
CENTER_NAME    = EARTH
REF_FRAME      = TEME
TIME_SYSTEM    = UTC
MEAN_ELEMENT_THEORY = SGP/SGP4

EPOCH          = 2026-03-06T18:28:03.781344
MEAN_MOTION    = 15.75228599
ECCENTRICITY   = .0001102
INCLINATION    = 97.2841
RA_OF_ASC_NODE = 252.1123
ARG_OF_PERICENTER = 75.7937
MEAN_ANOMALY   = 284.3450

EPHEMERIS_TYPE = 0
CLASSIFICATION_TYPE = U
NORAD_CAT_ID   = 67799
ELEMENT_SET_NO = 999
REV_AT_EPOCH   = 432
BSTAR          = .16491E-2
MEAN_MOTION_DOT = .253725E-2
MEAN_MOTION_DDOT = 0

CCSDS_OMM_VERS = 2.0
CREATION_DATE  = 
ORIGINATOR     = 

OBJECT_NAME    = STARLINK-36354
OBJECT_ID      = 2026-032D
CENTER_NAME    = EARTH
REF_FRAME      = TEME
TIME_SYSTEM    = UTC
MEAN_ELEMENT_THEORY = SGP/SGP4

EPOCH          = 2026-03-06T20:00:00.999360
MEAN_MOTION    = 15.75197029
ECCENTRICITY   = .0001436
INCLINATION    = 97.2850
RA_OF_ASC_NODE = 252.2068
ARG_OF_PERICENTER = 88.9921
MEAN_ANOMALY   = 334.9628

EPHEMERIS_TYPE = 0
CLASSIFICATION_TYPE = U
NORAD_CAT_ID   = 67800
ELEMENT_SET_NO = 999
REV_AT_EPOCH   = 432
BSTAR          = .16817E-3
MEAN_MOTION_DOT = .25035E-3
MEAN_MOTION_DDOT = 0

CCSDS_OMM_VERS = 2.0
CREATION_DATE  = 
ORIGINATOR     = 

OBJECT_NAME    = STARLINK-36773
OBJECT_ID      = 2026-032E
CENTER_NAME    = EARTH
REF_FRAME      = TEME
TIME_SYSTEM    = UTC
MEAN_ELEMENT_THEORY = SGP/SGP4

EPOCH          = 2026-03-06T18:23:29.824224
MEAN_MOTION    = 15.75221804
ECCENTRICITY   = .0001604
INCLINATION    = 97.2848
RA_OF_ASC_NODE = 252.1162
ARG_OF_PERICENTER = 86.1958
MEAN_ANOMALY   = 273.9491

EPHEMERIS_TYPE = 0
CLASSIFICATION_TYPE = U
NORAD_CAT_ID   = 67801
ELEMENT_SET_NO = 999
REV_AT_EPOCH   = 432
BSTAR          = .65319E-3
MEAN_MOTION_DOT = .98566E-3
MEAN_MOTION_DDOT = 0

