KUIPER-00268            
1 67790U 26030AC  26065.82891216  .00039807  00000+0  11273-2 0  9998
2 67790  51.8840 232.9037 0002669  38.7647 321.3530 15.35887577  4659
KUIPER-00270            
1 67791U 26030AD  26065.84908329  .00041372  00000+0  12205-2 0  9991
2 67791  51.8818 233.0250 0010412  47.5919 312.5946 15.34540261  4657
KUIPER-00274            
1 67792U 26030AE  26065.81329149  .00028974  00000+0  96014-3 0  9990
2 67792  51.8822 233.5306 0017983  63.6249 296.6578 15.30904324  4647
KUIPER-00275            
1 67793U 26030AF  26065.78127675  .00027797  00000+0  82384-3 0  9994
2 67793  51.8849 233.3294 0009118  45.3400 314.8328 15.34602161  4642
KUIPER-00276            
1 67794U 26030AG  26065.55596830 -.00184658  00000+0 -61912-2 0  9998
2 67794  51.8810 234.8028 0018646  58.3109 301.9691 15.30922911  4608
KUIPER-00279            
1 67795U 26030AH  26065.83898815  .00038271  00000+0  11048-2 0  9990
2 67795  51.8802 232.9576 0006654  39.6256 320.5215 15.35288509  4655
CREW DRAGON 12          
1 67796U 26031A   26065.54469341  .00009332  00000+0  18044-3 0  9998
2 67796  51.6317  87.9051 0008117 163.3368 196.7888 15.48477653555728
STARLINK-36800          
1 67797U 26032A   26065.58067662  .00103317  00000+0  68420-3 0  9995
2 67797  97.2845 251.9096 0001391  92.2343 267.9082 15.75224016  4294
STARLINK-36798          
1 67798U 26032B   26065.83334490  .00073254  00000+0  48879-3 0  9992
2 67798  97.2855 252.2141 0001274  88.5316 355.4580 15.75142642  4266
STARLINK-36804          
1 67799U 26032C   26065.76948821  .00253725  00000+0  16491-2 0  9991
2 67799  97.2841 252.1123 0001102  75.7937 284.3450 15.75228599  4327
STARLINK-36354          
1 67800U 26032D   26065.83334490  .00025035  00000+0  16817-3 0  9997
2 67800  97.2850 252.2068 0001436  88.9921 334.9628 15.75197029  4320
STARLINK-36773          
1 67801U 26032E   26065.76631741  .00098566  00000+0  65319-3 0  9999
2 67801  97.2848 252.1162 0001604  86.1958 273.9491 15.75221804  4328
